{"type": "FeatureCollection", "source": {"dataset": "Bestuurlijke Gebieden", "publisher": "Kadaster via PDOK", "url": "https://service.pdok.nl/kadaster/bestuurlijkegebieden/wfs/v1_0", "layer": "bestuurlijkegebieden:Gemeentegebied", "licence": "See PDOK metadata (not checked yet)", "fetched_on": "2026-10-04"}, "notes": ["Boundary simplified to 20 m for display."], "features": [{"type": "Feature", "properties": {"name": "Nijkerk", "code": "GM0267", "area_ha": 7204}, "geometry": {"type": "MultiPolygon", "coordinates": [[[[5.4807, 52.16762], [5.48313, 52.17026], [5.48517, 52.17174], [5.48469, 52.17201], [5.48519, 52.17336], [5.48561, 52.18197], [5.49074, 52.18386], [5.4909, 52.18423], [5.49251, 52.18479], [5.49443, 52.18599], [5.49469, 52.18576], [5.49536, 52.18611], [5.49519, 52.18643], [5.49593, 52.18686], [5.49631, 52.18662], [5.50082, 52.18858], [5.50418, 52.18913], [5.50493, 52.18857], [5.51208, 52.18857], [5.52121, 52.19183], [5.52921, 52.191], [5.53081, 52.19154], [5.53442, 52.18578], [5.53476, 52.18539], [5.53521, 52.18553], [5.5377, 52.18207], [5.54229, 52.17778], [5.54345, 52.1773], [5.54661, 52.17678], [5.54893, 52.17532], [5.5544, 52.17564], [5.56516, 52.1781], [5.56889, 52.17791], [5.56818, 52.17992], [5.56699, 52.18081], [5.56523, 52.18072], [5.56453, 52.18534], [5.56649, 52.18652], [5.5707, 52.18659], [5.57338, 52.18606], [5.57484, 52.18617], [5.57527, 52.18701], [5.57793, 52.18618], [5.57693, 52.19167], [5.57517, 52.19267], [5.57767, 52.1948], [5.58046, 52.19448], [5.5832, 52.19541], [5.58563, 52.19533], [5.58816, 52.19484], [5.58798, 52.19547], [5.58955, 52.19543], [5.58987, 52.19595], [5.59427, 52.19644], [5.59556, 52.19634], [5.6003, 52.19765], [5.60186, 52.1965], [5.60775, 52.19516], [5.60776, 52.1942], [5.61744, 52.19436], [5.61747, 52.19266], [5.61659, 52.19233], [5.6178, 52.19118], [5.61858, 52.19118], [5.61963, 52.19312], [5.62428, 52.19333], [5.62565, 52.19272], [5.63486, 52.20381], [5.63358, 52.20641], [5.63327, 52.20817], [5.6058, 52.20484], [5.54992, 52.20234], [5.55, 52.20344], [5.54822, 52.20512], [5.54816, 52.20566], [5.54775, 52.20564], [5.5413, 52.21233], [5.53985, 52.21213], [5.53961, 52.21317], [5.54044, 52.21323], [5.53459, 52.2193], [5.53314, 52.2191], [5.52694, 52.22304], [5.5267, 52.22381], [5.52301, 52.2273], [5.52349, 52.2275], [5.52297, 52.22787], [5.52259, 52.22769], [5.5194, 52.23062], [5.51747, 52.23097], [5.51768, 52.23141], [5.51733, 52.23148], [5.51488, 52.23114], [5.51559, 52.2341], [5.51397, 52.23472], [5.51277, 52.23469], [5.51297, 52.23573], [5.51025, 52.23533], [5.51051, 52.23406], [5.511, 52.23381], [5.51033, 52.23284], [5.50758, 52.23233], [5.50731, 52.23223], [5.50775, 52.23197], [5.50644, 52.23159], [5.50171, 52.23296], [5.50099, 52.23412], [5.49938, 52.23388], [5.49738, 52.23639], [5.49001, 52.23583], [5.48764, 52.23672], [5.48369, 52.23924], [5.47853, 52.24783], [5.47862, 52.24866], [5.47785, 52.24877], [5.47419, 52.25647], [5.47863, 52.25745], [5.47862, 52.25877], [5.47612, 52.26392], [5.47252, 52.26328], [5.4723, 52.26374], [5.46905, 52.26315], [5.46927, 52.26269], [5.46446, 52.26183], [5.46476, 52.26064], [5.46338, 52.26], [5.40673, 52.24975], [5.40464, 52.24963], [5.39497, 52.22558], [5.39322, 52.22072], [5.39356, 52.22014], [5.40722, 52.2134], [5.40967, 52.21858], [5.42103, 52.21319], [5.42199, 52.21228], [5.43471, 52.20588], [5.43638, 52.2053], [5.43665, 52.20559], [5.43924, 52.2046], [5.43982, 52.20598], [5.44104, 52.20569], [5.44019, 52.20463], [5.44115, 52.20431], [5.43964, 52.20261], [5.43939, 52.20143], [5.4401, 52.19005], [5.43935, 52.18712], [5.43809, 52.18458], [5.43925, 52.18431], [5.44014, 52.17322], [5.43892, 52.17292], [5.43988, 52.1712], [5.44293, 52.16918], [5.44537, 52.16826], [5.44904, 52.16768], [5.47575, 52.16576], [5.47575, 52.1661], [5.47992, 52.16581], [5.4807, 52.16762]]]]}}]}